{"type": "FeatureCollection", "features": [ {"type": "Feature", "properties": {"norad_id": 67030, "name": "STARLINK-36138", "group": "last-30-days", "lat": 28.68704431264121, "lon": -98.56382165348415, "alt_km": 329.0648719514202, "timestamp": "2025-12-23T07:45:08.119101+00:00", "meta": {"OBJECT_NAME": "STARLINK-36138", "OBJECT_ID": "2025-294A", "EPOCH": "2025-12-22T22:00:03.000096", "MEAN_MOTION": 15.80992952, "ECCENTRICITY": 0.00016481, "INCLINATION": 42.9996, "RA_OF_ASC_NODE": 119.8809, "ARG_OF_PERICENTER": 277.5755, "MEAN_ANOMALY": 63.517, "EPHEMERIS_TYPE": 0, "CLASSIFICATION_TYPE": "U", "NORAD_CAT_ID": 67030, "ELEMENT_SET_NO": 999, "REV_AT_EPOCH": 175, "BSTAR": -0.011036276, "MEAN_MOTION_DOT": -0.01929388, "MEAN_MOTION_DDOT": 0}, "tle": {"line1": "1 67030U 25294A   25356.91670139 -.01929388  00000+0 -11036-1 0  9998", "line2": "2 67030  42.9996 119.8809 0001648 277.5755  63.5170 15.80992952  1755"}}, "geometry": {"type": "Point", "coordinates": [-98.56382165348415, 28.68704431264121]}}, {"type": "Feature", "properties": {"norad_id": 67031, "name": "STARLINK-36150", "group": "last-30-days", "lat": 27.6951397650446, "lon": -96.89264588159301, "alt_km": 329.34884739229256, "timestamp": "2025-12-23T07:45:08.119113+00:00", "meta": {"OBJECT_NAME": "STARLINK-36150", "OBJECT_ID": "2025-294B", "EPOCH": "2025-12-22T22:00:03.000096", "MEAN_MOTION": 15.80999595, "ECCENTRICITY": 0.00017586, "INCLINATION": 42.9999, "RA_OF_ASC_NODE": 119.8762, "ARG_OF_PERICENTER": 284.8177, "MEAN_ANOMALY": 58.0396, "EPHEMERIS_TYPE": 0, "CLASSIFICATION_TYPE": "U", "NORAD_CAT_ID": 67031, "ELEMENT_SET_NO": 999, "REV_AT_EPOCH": 194, "BSTAR": -0.011023461, "MEAN_MOTION_DOT": -0.0192808, "MEAN_MOTION_DDOT": 0}, "tle": {"line1": "1 67031U 25294B   25356.91670139 -.01928080  00000+0 -11023-1 0  9993", "line2": "2 67031  42.9999 119.8762 0001758 284.8177  58.0396 15.80999595  1948"}}, "geometry": {"type": "Point", "coordinates": [-96.89264588159301, 27.6951397650446]}}, {"type": "Feature", "properties": {"norad_id": 67032, "name": "STARLINK-36131", "group": "last-30-days", "lat": 25.282133100300534, "lon": -93.07455342921801, "alt_km": 329.65131722927526, "timestamp": "2025-12-23T07:45:08.119123+00:00", "meta": {"OBJECT_NAME": "STARLINK-36131", "OBJECT_ID": "2025-294C", "EPOCH": "2025-12-22T22:00:03.000096", "MEAN_MOTION": 15.80985888, "ECCENTRICITY": 0.00017605, "INCLINATION": 42.9998, "RA_OF_ASC_NODE": 119.8653, "ARG_OF_PERICENTER": 279.9003, "MEAN_ANOMALY": 67.1683, "EPHEMERIS_TYPE": 0, "CLASSIFICATION_TYPE": "U", "NORAD_CAT_ID": 67032, "ELEMENT_SET_NO": 999, "REV_AT_EPOCH": 175, "BSTAR": -0.011037835, "MEAN_MOTION_DOT": -0.01929186, "MEAN_MOTION_DDOT": 0}, "tle": {"line1": "1 67032U 25294C   25356.91670139 -.01929186  00000+0 -11038-1 0  9998", "line2": "2 67032  42.9998 119.8653 0001760 279.9003  67.1683 15.80985888  1752"}}, "geometry": {"type": "Point", "coordinates": [-93.07455342921801, 25.282133100300534]}}, {"type": "Feature", "properties": {"norad_id": 67033, "name": "STARLINK-36137", "group": "last-30-days", "lat": 26.510856897241627, "lon": -94.97846574186006, "alt_km": 329.5343847560962, "timestamp": "2025-12-23T07:45:08.119133+00:00", "meta": {"OBJECT_NAME": "STARLINK-36137", "OBJECT_ID": "2025-294D", "EPOCH": "2025-12-22T22:00:03.000096", "MEAN_MOTION": 15.80990332, "ECCENTRICITY": 0.00017726, "INCLINATION": 42.9996, "RA_OF_ASC_NODE": 119.8711, "ARG_OF_PERICENTER": 284.0552, "MEAN_ANOMALY": 60.8922, "EPHEMERIS_TYPE": 0, "CLASSIFICATION_TYPE": "U", "NORAD_CAT_ID": 67033, "ELEMENT_SET_NO": 999, "REV_AT_EPOCH": 175, "BSTAR": -0.01101591, "MEAN_MOTION_DOT": -0.01926225, "MEAN_MOTION_DDOT": 0}, "tle": {"line1": "1 67033U 25294D   25356.91670139 -.01926225  00000+0 -11016-1 0  9996", "line2": "2 67033  42.9996 119.8711 0001772 284.0552  60.8922 15.80990332  1751"}}, "geometry": {"type": "Point", "coordinates": [-94.97846574186006, 26.510856897241627]}}, {"type": "Feature", "properties": {"norad_id": 67034, "name": "STARLINK-36140", "group": "last-30-days", "lat": 23.94946283045189, "lon": -91.0921595858937, "alt_km": 329.91139974120597, "timestamp": "2025-12-23T07:45:08.119144+00:00", "meta": {"OBJECT_NAME": "STARLINK-36140", "OBJECT_ID": "2025-294E", "EPOCH": "2025-12-22T22:00:03.000096", "MEAN_MOTION": 15.80972396, "ECCENTRICITY": 0.00018376, "INCLINATION": 42.9998, "RA_OF_ASC_NODE": 119.86, "ARG_OF_PERICENTER": 279.8048, "MEAN_ANOMALY": 69.5289, "EPHEMERIS_TYPE": 0, "CLASSIFICATION_TYPE": "U", "NORAD_CAT_ID": 67034, "ELEMENT_SET_NO": 999, "REV_AT_EPOCH": 175, "BSTAR": -0.011051501, "MEAN_MOTION_DOT": -0.01930277, "MEAN_MOTION_DDOT": 0}, "tle": {"line1": "1 67034U 25294E   25356.91670139 -.01930277  00000+0 -11052-1 0  9999", "line2": "2 67034  42.9998 119.8600 0001837 279.8048  69.5289 15.80972396  1757"}}, "geometry": {"type": "Point", "coordinates": [-91.0921595858937, 23.94946283045189]}}, {"type": "Feature", "properties": {"norad_id": 67035, "name": "STARLINK-36085", "group": "last-30-days", "lat": 21.181140605111523, "lon": -87.20818090133561, "alt_km": 330.3183011757146, "timestamp": "2025-12-23T07:45:08.119155+00:00", "meta": {"OBJECT_NAME": "STARLINK-36085", "OBJECT_ID": "2025-294F", "EPOCH": "2025-12-22T22:00:03.000096", "MEAN_MOTION": 15.80938188, "ECCENTRICITY": 0.00018129, "INCLINATION": 42.9999, "RA_OF_ASC_NODE": 119.8483, "ARG_OF_PERICENTER": 278.6364, "MEAN_ANOMALY": 75.2792, "EPHEMERIS_TYPE": 0, "CLASSIFICATION_TYPE": "U", "NORAD_CAT_ID": 67035, "ELEMENT_SET_NO": 999, "REV_AT_EPOCH": 175, "BSTAR": -0.011027822, "MEAN_MOTION_DOT": -0.01923988, "MEAN_MOTION_DDOT": 0}, "tle": {"line1": "1 67035U 25294F   25356.91670139 -.01923988  00000+0 -11028-1 0  9994", "line2": "2 67035  42.9999 119.8483 0001812 278.6364  75.2792 15.80938188  1753"}}, "geometry": {"type": "Point", "coordinates": [-87.20818090133561, 21.181140605111523]}}, {"type": "Feature", "properties": {"norad_id": 67036, "name": "STARLINK-36125", "group": "last-30-days", "lat": 22.57740195199405, "lon": -89.13102028401353, "alt_km": 330.1386020607688, "timestamp": "2025-12-23T07:45:08.119165+00:00", "meta": {"OBJECT_NAME": "STARLINK-36125", "OBJECT_ID": "2025-294G", "EPOCH": "2025-12-22T22:00:03.000096", "MEAN_MOTION": 15.80956492, "ECCENTRICITY": 0.00017367, "INCLINATION": 42.9998, "RA_OF_ASC_NODE": 119.8543, "ARG_OF_PERICENTER": 282.9487, "MEAN_ANOMALY": 68.672, "EPHEMERIS_TYPE": 0, "CLASSIFICATION_TYPE": "U", "NORAD_CAT_ID": 67036, "ELEMENT_SET_NO": 999, "REV_AT_EPOCH": 194, "BSTAR": -0.011045392, "MEAN_MOTION_DOT": -0.01928, "MEAN_MOTION_DDOT": 0}, "tle": {"line1": "1 67036U 25294G   25356.91670139 -.01928000  00000+0 -11045-1 0  9994", "line2": "2 67036  42.9998 119.8543 0001736 282.9487  68.6720 15.80956492  1945"}}, "geometry": {"type": "Point", "coordinates": [-89.13102028401353, 22.57740195199405]}}, {"type": "Feature", "properties": {"norad_id": 67037, "name": "STARLINK-35732", "group": "last-30-days", "lat": 19.684229032022493, "lon": -85.21796747048393, "alt_km": 330.6133297549495, "timestamp": "2025-12-23T07:45:08.119175+00:00", "meta": {"OBJECT_NAME": "STARLINK-35732", "OBJECT_ID": "2025-294H", "EPOCH": "2025-12-22T22:00:03.000096", "MEAN_MOTION": 15.80922305, "ECCENTRICITY": 0.00018399, "INCLINATION": 42.9997, "RA_OF_ASC_NODE": 119.8424, "ARG_OF_PERICENTER": 280.1429, "MEAN_ANOMALY": 76.193, "EPHEMERIS_TYPE": 0, "CLASSIFICATION_TYPE": "U", "NORAD_CAT_ID": 67037, "ELEMENT_SET_NO": 999, "REV_AT_EPOCH": 186, "BSTAR": -0.011062387, "MEAN_MOTION_DOT": -0.01927999, "MEAN_MOTION_DDOT": 0}, "tle": {"line1": "1 67037U 25294H   25356.91670139 -.01927999  00000+0 -11062-1 0  9990", "line2": "2 67037  42.9997 119.8424 0001839 280.1429  76.1930 15.80922305  1867"}}, "geometry": {"type": "Point", "coordinates": [-85.21796747048393, 19.684229032022493]}}, {"type": "Feature", "properties": {"norad_id": 67038, "name": "STARLINK-35775", "group": "last-30-days", "lat": 18.340800255568382, "lon": -83.48699529596531, "alt_km": 330.78757738075456, "timestamp": "2025-12-23T07:45:08.119185+00:00", "meta": {"OBJECT_NAME": "STARLINK-35775", "OBJECT_ID": "2025-294J", "EPOCH": "2025-12-22T22:00:03.000096", "MEAN_MOTION": 15.80909084, "ECCENTRICITY": 0.000169, "INCLINATION": 43, "RA_OF_ASC_NODE": 119.8369, "ARG_OF_PERICENTER": 282.4875, "MEAN_ANOMALY": 75.9819, "EPHEMERIS_TYPE": 0, "CLASSIFICATION_TYPE": "U", "NORAD_CAT_ID": 67038, "ELEMENT_SET_NO": 999, "REV_AT_EPOCH": 186, "BSTAR": -0.011032537, "MEAN_MOTION_DOT": -0.01922299, "MEAN_MOTION_DDOT": 0}, "tle": {"line1": "1 67038U 25294J   25356.91670139 -.01922299  00000+0 -11033-1 0  9997", "line2": "2 67038  43.0000 119.8369 0001690 282.4875  75.9819 15.80909084  1860"}}, "geometry": {"type": "Point", "coordinates": [-83.48699529596531, 18.340800255568382]}}, {"type": "Feature", "properties": {"norad_id": 67039, "name": "STARLINK-35705", "group": "last-30-days", "lat": 15.538966771344965, "lon": -80.01929168413005, "alt_km": 331.1602535948805, "timestamp": "2025-12-23T07:45:08.119195+00:00", "meta": {"OBJECT_NAME": "STARLINK-35705", "OBJECT_ID": "2025-294K", "EPOCH": "2025-12-22T22:00:03.000096", "MEAN_MOTION": 15.80891031, "ECCENTRICITY": 0.00016584, "INCLINATION": 42.9999, "RA_OF_ASC_NODE": 119.826, "ARG_OF_PERICENTER": 281.3995, "MEAN_ANOMALY": 81.4441, "EPHEMERIS_TYPE": 0, "CLASSIFICATION_TYPE": "U", "NORAD_CAT_ID": 67039, "ELEMENT_SET_NO": 999, "REV_AT_EPOCH": 175, "BSTAR": -0.011041042, "MEAN_MOTION_DOT": -0.01922141, "MEAN_MOTION_DDOT": 0}, "tle": {"line1": "1 67039U 25294K   25356.91670139 -.01922141  00000+0 -11041-1 0  9993", "line2": "2 67039  42.9999 119.8260 0001658 281.3995  81.4441 15.80891031  1754"}}, "geometry": {"type": "Point", "coordinates": [-80.01929168413005, 15.538966771344965]}}]}